#dP2021  5 27 12  0  0.00000000      96 __u+U ITR00 EXT  IAC
## 2159 388800.00000000   900.00000000 59361 0.5000000000000
+  116   C06C07C08C09C10C11C12C13C14C16C19C20C21C22C23C24C25
+        C26C27C28C29C30C32C33C34C35C36C37C38C39C40C41C42C43
+        C44C45C46E01E02E03E04E05E07E08E09E11E12E13E14E15E18
+        E19E21E24E25E26E27E30E31E33E36G01G02G03G04G05G06G07
+        G08G09G10G12G13G14G15G16G17G18G19G20G21G22G23G24G25
+        G26G27G28G29G30G31G32J01J02J03R01R02R03R04R05R07R08
+        R09R11R12R13R14R15R16R17R18R19R20R21R22R24  0  0  0
++         9 10  8  8  9  8  8 10 10 10  9  9  9  8  9  9 10
++        10  8  9 10  9  9  8  9  8  9 10  9  9 11  8  8  8
++         9 11  8  7  6  8  7  7  8  8  8 11 10  8  8  9  8
++         8  8  6  8  8  7  8  7  7  9  7  8  7  8  7  7  9
++         7  8  6  9  7  7  6  7  6  7  8  8  8  7  8  8  7
++         9  7  6  8  8  9  8 10 10  9  8  8  8  6  7  8  8
++        12  8  7 10  8 15  8  8  9 10  8  9 10  7  0  0  0
%c M  cc GPS ccc cccc cccc cccc cccc ccccc ccccc ccccc ccccc
%c cc cc ccc ccc cccc cccc cccc cccc ccccc ccccc ccccc ccccc
%f  0.0000000  0.000000000  0.00000000000  0.000000000000000
%f  0.0000000  0.000000000  0.00000000000  0.000000000000000
%i    0    0    0    0      0      0      0      0         0
%i    0    0    0    0      0      0      0      0         0
/* IAC                                ULTRA-RAPID PREDICTION
/* S/V CLOCKS ARE ALIGNED TO GNSS TIME                      
/* G:C1WC2W R:C1PC2P E:C1XC5X C:C2IC6I J:C1CC2S             
/* PCV:IGS14_2148 OL/AL:FES2004  NONE     YN ORB:CoN CLK:CoN
*  2021 05 27 14 30  0.00000000
PC06  -9259.563456  34529.198099  23215.388980    432.955650
PC07 -17918.751835  22077.653234 -31000.091191    136.883782
PC08 -23961.480591  32694.392669  11015.128937   -891.297749
PC09    486.066638  41292.256997   9904.056006    492.807362
PC10   -287.912729  26673.218929 -32412.646875    -37.291804
PC11  -4310.834034 -27530.066326  -1796.182323    365.113150
PC12   7098.136744 -22494.276933  14952.397512    866.902990
PC13 -13327.547611  33550.922675  21678.644613    277.013810
PC14  -9072.311012 -18060.754631 -19238.038996    845.842653
PC16  -6350.410900  36185.754828  21008.424692   -862.257258
PC19  18347.255701  16786.051380  12671.837097    850.375872
PC20     72.196440  16699.792661  22373.254185   -899.537302
PC21  19159.805816  -6582.653797 -19156.734213   -938.233514
PC22  26533.797456   7154.473271  -4738.422848   -953.388399
PC23 -21971.214116   1393.002720  17156.969638   -918.061415
PC24  10778.137043 -21302.172482  14461.838007   -867.469752
PC25  -8972.729188 -13546.178714  22685.232939   -910.540250
PC26  22177.450094 -16935.851468  -1058.062293    901.173923
PC27 -12448.680256  14425.125492 -20417.553849    538.536457
PC28 -16021.159621  -6674.462122 -21854.863453    -69.440099
PC29  11090.798543  23376.569870  10448.189434    397.980729
PC30   -938.903337  26881.337794  -7488.991647    468.533733
PC32 -19147.874607   6744.389867  19174.204670   -929.265450
PC33 -18432.018785 -16701.829900 -12662.054874   -936.840566
PC34    503.256471 -27051.779750   6766.879853   -663.971443
PC35  16293.006928   6538.071114  21689.577182   -261.257720
PC36   8310.856259  13979.858096 -22650.791216   -726.875372
PC37 -22857.297276  15879.262930   1942.607899   -884.946661
PC38 -19887.217753  34193.330784  14390.189424    151.450695
PC39  -2300.132936  37474.762776  19343.754165     31.386930
PC40  -6406.211877  21476.755317 -35689.060856    165.107302
PC41 -26582.507549  -7224.862908   4515.978583   -944.772076
PC42    698.209315 -16516.456670 -22436.671743   -913.818325
PC43 -10785.101685 -23708.819571  -9994.140783   -749.245154
PC44  12154.615335 -14611.906923  20408.107141    209.186128
PC45  21972.993693  -1635.095454 -17129.131509    451.310343
PC46  -9829.798767  21171.522605 -15262.328913    251.784023
PE01 -20750.663362  -9215.661777  18990.421762  -1116.631622
PE02  20866.804072   9138.681303 -18909.918059    221.969181
PE03  21228.697123  20164.863452  -4286.508076   -435.464137
PE04 -21737.371502  -3933.809249  19715.274069   -779.783821
PE05   8243.367287  24804.000441  13896.388653   -277.669601
PE07   9379.204416 -14939.948133 -23758.865665   -542.710059
PE08  21544.648867   3581.964735 -19964.844980   5995.481270
PE09  -9084.620683  15012.085071  23845.986882   5653.751454
PE11 -14385.274783  24418.411379  -8590.426112   5927.803113
PE12 -17896.171128   6309.370494 -22728.155057   5189.868147
PE13  14452.219075 -24208.344449   8998.233608    416.958377
PE14    409.233621 -22683.953430  12543.620662  -1445.491544
PE15  17803.048400  -6403.145681  22763.223820    812.038109
PE18 -10928.421127  18965.754626 -21746.991563  -1582.637139
PE19 -20298.421130 -21435.784050   2167.504376    287.347308
PE21  -1010.602949 -16591.406032  24490.873290   -667.279554
PE24 -20823.776951  14332.164609 -15394.705626   -922.627713
PE25    777.914190  16623.064516 -24474.597249   -535.102867
PE26   2076.689001 -27507.174343 -10733.883749   1762.329571
PE27  20104.425967 -14688.894759  16014.120767    -41.407738
PE30  29284.667377  -3374.479779  -2760.298838   2911.733733
PE31 -29250.480426   4157.096026   1828.301503   -481.588948
PE33 -10672.435841 -15116.824912 -23100.164572   -469.062943
PE36  -2604.151896  27731.582744  10034.365765   -212.797724
PG01  14022.471484 -22305.166589    810.613757    676.768997
PG02 -17193.438351   5093.866754 -18960.490938   -607.655113
PG03  14232.889678 -12636.061111 -18561.017815   -175.451090
PG04   5502.198971 -17882.398386 -18821.314458   -197.865801
PG05 -25098.836920   5598.656566   6870.926239    -43.177597
PG06 -12328.166769  -7980.425220 -22073.776269     20.097059
PG07   3782.877687 -23223.498954  12172.427917    162.416723
PG08  12209.135612  -8909.840060  21815.433035    -22.818793
PG09  -4584.508512 -23594.231589 -11337.625561   -347.931280
PG10  16701.410031  11854.981331  17173.059061   -130.374330
PG12 -16641.375412  10845.871586 -17816.108622    -46.800164
PG13 -15950.591882   -628.780390  21118.397573    137.284317
PG14 -15818.491214 -12830.862798  17055.988804     79.627699
PG15 -11604.611835  10709.832385  20974.407561   -146.513167
PG16  26632.266821    701.166041   2759.453908   -331.828790
PG17 -13239.264427 -22801.233496  -2754.651782    449.046415
PG18  -1781.169763  22056.247114  14629.389700    349.154665
PG19 -16354.824374 -17448.367287 -11969.440625      5.532037
PG20 -21241.806381  11127.896564  11027.799318    521.765331
PG21  16731.853192 -18053.302533  10011.028151    121.025545
PG22  22092.530355  -9861.729903 -10542.378926   -603.726107
PG23   4638.169869  14840.315763  21518.968307    102.946696
PG24 -15270.457857  20487.315433   6200.774922    101.803288
PG25  -3221.561943  15197.377353 -21784.032071    144.957486
PG26  25339.967699   4336.570773  -7267.797373     90.741443
PG27  17316.454527   3338.425008  19797.104955   -137.203474
PG28 -20346.398245 -11152.745431  13302.113047    564.509572
PG29   2536.203683  23649.985576 -11817.809168   -354.155082
PG30  -7037.854502 -16237.796786  19800.441565   -431.477203
PG31  14798.259827   5055.595230 -21593.006983   -119.668521
PG32  16051.430276  20633.720215  -5076.507859     20.296388
PJ01 -27710.900515  20412.027449  29409.333260   -385.509493
PJ02 -34983.928914  18907.734722  -9518.673752     -0.031999
PJ03 -19844.921734  28383.190903 -19479.347321     -6.484623
PR01  -9962.176498 -15886.484430 -17294.845649     80.039914
PR02 -21772.547311 -13104.509923   1877.508329    480.203420
PR03 -18529.684678  -2032.904617  17434.666788     36.669159
PR04  -4832.459991   9778.510980  23090.669011     88.639098
PR05  11490.013542  16336.432884  15895.758809     72.499113
PR07  18225.803721   1686.833815 -17743.859071    -42.422655
PR08   4818.187554  -9884.931238 -22954.960932    -59.223413
PR09  16848.680219   1620.317793 -19037.373579     -5.048789
PR11  16348.984180 -15319.730724  12191.462729     -7.115960
PR12   -367.605270 -11929.507199  22571.647684    232.318589
PR13 -16312.342118  -1820.751100  19511.586546    -55.345659
PR14 -23174.789492   9677.518604   4529.895839     64.701205
PR15 -16208.942562  15167.370911 -12547.865948    103.594285
PR16   1920.589170  11526.818448 -22683.479240    -15.604479
PR17 -10464.794978   6858.831177 -22219.770511    427.599353
PR18  -6513.841338  21729.892857 -11711.692995     77.970934
PR19   -205.741909  25161.321532   4181.806575   -145.389059
PR20   7978.992972  13116.831864  20386.182864    -49.848712
PR21  10304.857890  -8197.645967  21845.149628   -212.081259
PR22   6218.642964 -22198.839991  10788.648828   -114.754034
PR24  -8807.935772 -12291.016682 -20535.650268     44.257374
EOF
